{"type": "FeatureCollection", "features": [ {"type": "Feature", "properties": {"norad_id": 28659, "name": "DIRECTV 8", "group": "intelsat", "lat": -0.026274348580725155, "lon": -121.38623007140784, "alt_km": 35777.24461273038, "timestamp": "2025-12-27T17:24:57.061125+00:00", "meta": {"OBJECT_NAME": "DIRECTV 8", "OBJECT_ID": "2005-019A", "EPOCH": "2025-12-27T10:43:25.907232", "MEAN_MOTION": 1.00271631, "ECCENTRICITY": 0.0003224, "INCLINATION": 0.0255, "RA_OF_ASC_NODE": 282.5158, "ARG_OF_PERICENTER": 5.6349, "MEAN_ANOMALY": 209.8441, "EPHEMERIS_TYPE": 0, "CLASSIFICATION_TYPE": "U", "NORAD_CAT_ID": 28659, "ELEMENT_SET_NO": 999, "REV_AT_EPOCH": 7535, "BSTAR": 0, "MEAN_MOTION_DOT": 2.4e-07, "MEAN_MOTION_DDOT": 0}, "tle": {"line1": "1 28659U 05019A   25361.44682763  .00000024  00000+0  00000+0 0  9996", "line2": "2 28659   0.0255 282.5158 0003224   5.6349 209.8441  1.00271631 75352"}}, "geometry": {"type": "Point", "coordinates": [-121.38623007140784, -0.026274348580725155]}}, {"type": "Feature", "properties": {"norad_id": 28702, "name": "GALAXY 28 (G-28)", "group": "intelsat", "lat": -0.8562638106587681, "lon": -81.85848756028213, "alt_km": 35682.88108521537, "timestamp": "2025-12-27T17:24:57.061137+00:00", "meta": {"OBJECT_NAME": "GALAXY 28 (G-28)", "OBJECT_ID": "2005-022A", "EPOCH": "2025-12-27T10:54:32.343264", "MEAN_MOTION": 1.00599384, "ECCENTRICITY": 0.0003395, "INCLINATION": 2.8575, "RA_OF_ASC_NODE": 81.111, "ARG_OF_PERICENTER": 162.0273, "MEAN_ANOMALY": 296.8152, "EPHEMERIS_TYPE": 0, "CLASSIFICATION_TYPE": "U", "NORAD_CAT_ID": 28702, "ELEMENT_SET_NO": 999, "REV_AT_EPOCH": 5025, "BSTAR": 0, "MEAN_MOTION_DOT": -2.36e-06, "MEAN_MOTION_DDOT": 0}, "tle": {"line1": "1 28702U 05022A   25361.45454101 -.00000236  00000+0  00000+0 0  9999", "line2": "2 28702   2.8575  81.1110 0003395 162.0273 296.8152  1.00599384 50255"}}, "geometry": {"type": "Point", "coordinates": [-81.85848756028213, -0.8562638106587681]}}, {"type": "Feature", "properties": {"norad_id": 29236, "name": "GALAXY 16 (G-16)", "group": "intelsat", "lat": 0.012672955134352213, "lon": -101.3401382377319, "alt_km": 35775.42553244752, "timestamp": "2025-12-27T17:24:57.061149+00:00", "meta": {"OBJECT_NAME": "GALAXY 16 (G-16)", "OBJECT_ID": "2006-023A", "EPOCH": "2025-12-27T05:40:54.876864", "MEAN_MOTION": 1.00271202, "ECCENTRICITY": 0.00027459, "INCLINATION": 0.0429, "RA_OF_ASC_NODE": 195.3646, "ARG_OF_PERICENTER": 84.5486, "MEAN_ANOMALY": 162.2754, "EPHEMERIS_TYPE": 0, "CLASSIFICATION_TYPE": "U", "NORAD_CAT_ID": 29236, "ELEMENT_SET_NO": 999, "REV_AT_EPOCH": 7124, "BSTAR": 0, "MEAN_MOTION_DOT": -1.04e-06, "MEAN_MOTION_DDOT": 0}, "tle": {"line1": "1 29236U 06023A   25361.23674626 -.00000104  00000+0  00000+0 0  9990", "line2": "2 29236   0.0429 195.3646 0002745  84.5486 162.2754  1.00271202 71242"}}, "geometry": {"type": "Point", "coordinates": [-101.3401382377319, 0.012672955134352213]}}, {"type": "Feature", "properties": {"norad_id": 29494, "name": "DIRECTV 9S", "group": "intelsat", "lat": 0.20959470567711055, "lon": -103.53077144535855, "alt_km": 35774.1578302861, "timestamp": "2025-12-27T17:24:57.061161+00:00", "meta": {"OBJECT_NAME": "DIRECTV 9S", "OBJECT_ID": "2006-043A", "EPOCH": "2025-12-27T05:40:17.437152", "MEAN_MOTION": 1.00271318, "ECCENTRICITY": 0.00031286, "INCLINATION": 1.9756, "RA_OF_ASC_NODE": 83.0552, "ARG_OF_PERICENTER": 198.0551, "MEAN_ANOMALY": 158.7284, "EPHEMERIS_TYPE": 0, "CLASSIFICATION_TYPE": "U", "NORAD_CAT_ID": 29494, "ELEMENT_SET_NO": 999, "REV_AT_EPOCH": 4965, "BSTAR": 0, "MEAN_MOTION_DOT": -9.2e-07, "MEAN_MOTION_DDOT": 0}, "tle": {"line1": "1 29494U 06043A   25361.23631293 -.00000092  00000+0  00000+0 0  9997", "line2": "2 29494   1.9756  83.0552 0003128 198.0551 158.7284  1.00271318 49656"}}, "geometry": {"type": "Point", "coordinates": [-103.53077144535855, 0.20959470567711055]}}, {"type": "Feature", "properties": {"norad_id": 31307, "name": "GALAXY 17 (G-17)", "group": "intelsat", "lat": -0.48469411740877355, "lon": -87.29524738240337, "alt_km": 35763.25122055351, "timestamp": "2025-12-27T17:24:57.061173+00:00", "meta": {"OBJECT_NAME": "GALAXY 17 (G-17)", "OBJECT_ID": "2007-016B", "EPOCH": "2025-12-27T05:41:41.557920", "MEAN_MOTION": 1.00271444, "ECCENTRICITY": 0.00056477, "INCLINATION": 2.5345, "RA_OF_ASC_NODE": 82.1193, "ARG_OF_PERICENTER": 175.01, "MEAN_ANOMALY": 199.2775, "EPHEMERIS_TYPE": 0, "CLASSIFICATION_TYPE": "U", "NORAD_CAT_ID": 31307, "ELEMENT_SET_NO": 999, "REV_AT_EPOCH": 6808, "BSTAR": 0, "MEAN_MOTION_DOT": -1.85e-06, "MEAN_MOTION_DDOT": 0}, "tle": {"line1": "1 31307U 07016B   25361.23728655 -.00000185  00000+0  00000+0 0  9996", "line2": "2 31307   2.5345  82.1193 0005647 175.0100 199.2775  1.00271444 68080"}}, "geometry": {"type": "Point", "coordinates": [-87.29524738240337, -0.48469411740877355]}}, {"type": "Feature", "properties": {"norad_id": 31862, "name": "DIRECTV 10", "group": "intelsat", "lat": -0.005422635555853198, "lon": -105.02481547705321, "alt_km": 35780.50766443913, "timestamp": "2025-12-27T17:24:57.061184+00:00", "meta": {"OBJECT_NAME": "DIRECTV 10", "OBJECT_ID": "2007-032A", "EPOCH": "2025-12-25T09:09:15.831072", "MEAN_MOTION": 1.00280696, "ECCENTRICITY": 7.66e-05, "INCLINATION": 0.0126, "RA_OF_ASC_NODE": 126.575, "ARG_OF_PERICENTER": 111.4706, "MEAN_ANOMALY": 250.6263, "EPHEMERIS_TYPE": 0, "CLASSIFICATION_TYPE": "U", "NORAD_CAT_ID": 31862, "ELEMENT_SET_NO": 999, "REV_AT_EPOCH": 4385, "BSTAR": 0, "MEAN_MOTION_DOT": -8.3e-07, "MEAN_MOTION_DDOT": 0}, "tle": {"line1": "1 31862U 07032A   25359.38143323 -.00000083  00000+0  00000+0 0  9993", "line2": "2 31862   0.0126 126.5750 0000766 111.4706 250.6263  1.00280696 43852"}}, "geometry": {"type": "Point", "coordinates": [-105.02481547705321, -0.005422635555853198]}}, {"type": "Feature", "properties": {"norad_id": 32253, "name": "INTELSAT 11 (IS-11)", "group": "intelsat", "lat": 3.0435924465810817, "lon": 157.41488406653974, "alt_km": 36134.71327542834, "timestamp": "2025-12-27T17:24:57.061196+00:00", "meta": {"OBJECT_NAME": "INTELSAT 11 (IS-11)", "OBJECT_ID": "2007-044B", "EPOCH": "2025-12-27T10:20:35.592864", "MEAN_MOTION": 0.99052886, "ECCENTRICITY": 0.0008682, "INCLINATION": 3.1165, "RA_OF_ASC_NODE": 80.8097, "ARG_OF_PERICENTER": 172.4291, "MEAN_ANOMALY": 159.2123, "EPHEMERIS_TYPE": 0, "CLASSIFICATION_TYPE": "U", "NORAD_CAT_ID": 32253, "ELEMENT_SET_NO": 999, "REV_AT_EPOCH": 6674, "BSTAR": 0, "MEAN_MOTION_DOT": -2.34e-06, "MEAN_MOTION_DDOT": 0}, "tle": {"line1": "1 32253U 07044B   25361.43096751 -.00000234  00000+0  00000+0 0  9990", "line2": "2 32253   3.1165  80.8097 0008682 172.4291 159.2123  0.99052886 66748"}}, "geometry": {"type": "Point", "coordinates": [157.41488406653974, 3.0435924465810817]}}, {"type": "Feature", "properties": {"norad_id": 32388, "name": "HORIZONS-2", "group": "intelsat", "lat": -0.794414700426915, "lon": -76.14912991946207, "alt_km": 35766.48452191859, "timestamp": "2025-12-27T17:24:57.061208+00:00", "meta": {"OBJECT_NAME": "HORIZONS-2", "OBJECT_ID": "2007-063B", "EPOCH": "2025-12-27T01:24:36.095040", "MEAN_MOTION": 1.00268662, "ECCENTRICITY": 0.00048859, "INCLINATION": 2.1568, "RA_OF_ASC_NODE": 82.8029, "ARG_OF_PERICENTER": 197.7808, "MEAN_ANOMALY": 122.5454, "EPHEMERIS_TYPE": 0, "CLASSIFICATION_TYPE": "U", "NORAD_CAT_ID": 32388, "ELEMENT_SET_NO": 999, "REV_AT_EPOCH": 6608, "BSTAR": 0, "MEAN_MOTION_DOT": -2.32e-06, "MEAN_MOTION_DDOT": 0}, "tle": {"line1": "1 32388U 07063B   25361.05875110 -.00000232  00000+0  00000+0 0  9990", "line2": "2 32388   2.1568  82.8029 0004885 197.7808 122.5454  1.00268662 66086"}}, "geometry": {"type": "Point", "coordinates": [-76.14912991946207, -0.794414700426915]}}, {"type": "Feature", "properties": {"norad_id": 32729, "name": "DIRECTV 11", "group": "intelsat", "lat": 0.013068090833093814, "lon": -101.6219284739441, "alt_km": 35786.31207335411, "timestamp": "2025-12-27T17:24:57.061219+00:00", "meta": {"OBJECT_NAME": "DIRECTV 11", "OBJECT_ID": "2008-013A", "EPOCH": "2025-12-24T22:53:59.758368", "MEAN_MOTION": 1.00260442, "ECCENTRICITY": 0.0001047, "INCLINATION": 0.0475, "RA_OF_ASC_NODE": 199.7105, "ARG_OF_PERICENTER": 11.4593, "MEAN_ANOMALY": 126.8496, "EPHEMERIS_TYPE": 0, "CLASSIFICATION_TYPE": "U", "NORAD_CAT_ID": 32729, "ELEMENT_SET_NO": 999, "REV_AT_EPOCH": 4384, "BSTAR": 0, "MEAN_MOTION_DOT": -1.03e-06, "MEAN_MOTION_DDOT": 0}, "tle": {"line1": "1 32729U 08013A   25358.95416387 -.00000103  00000+0  00000+0 0  9994", "line2": "2 32729   0.0475 199.7105 0001047  11.4593 126.8496  1.00260442 43842"}}, "geometry": {"type": "Point", "coordinates": [-101.6219284739441, 0.013068090833093814]}}, {"type": "Feature", "properties": {"norad_id": 32951, "name": "GALAXY 18 (G-18)", "group": "intelsat", "lat": -0.028672544883059613, "lon": -125.35540727406944, "alt_km": 35777.065972146585, "timestamp": "2025-12-27T17:24:57.061246+00:00", "meta": {"OBJECT_NAME": "GALAXY 18 (G-18)", "OBJECT_ID": "2008-024A", "EPOCH": "2025-12-27T10:42:18.514368", "MEAN_MOTION": 1.00271409, "ECCENTRICITY": 0.0003384, "INCLINATION": 0.0202, "RA_OF_ASC_NODE": 8.4916, "ARG_OF_PERICENTER": 276.7397, "MEAN_ANOMALY": 208.5148, "EPHEMERIS_TYPE": 0, "CLASSIFICATION_TYPE": "U", "NORAD_CAT_ID": 32951, "ELEMENT_SET_NO": 999, "REV_AT_EPOCH": 4413, "BSTAR": 0, "MEAN_MOTION_DOT": 0, "MEAN_MOTION_DDOT": 0}, "tle": {"line1": "1 32951U 08024A   25361.44604762  .00000000  00000+0  00000+0 0  9992", "line2": "2 32951   0.0202   8.4916 0003384 276.7397 208.5148  1.00271409 44137"}}, "geometry": {"type": "Point", "coordinates": [-125.35540727406944, -0.028672544883059613]}}]}